NORAD_CAT_ID,OBJECT_NAME,OBJECT_TYPE,EPOCH,MEAN_MOTION,ECCENTRICITY,INCLINATION,RA_OF_ASC_NODE,ARG_OF_PERICENTER,MEAN_ANOMALY,BSTAR,MEAN_MOTION_DOT,MEAN_MOTION_DDOT,TLE_LINE0,TLE_LINE1,TLE_LINE2,SEMIMAJOR_AXIS,PERIOD,APOGEE,PERIGEE,DECAYED
50841.0,STARLINK-3300,PAYLOAD,2024-06-01 10:51:47,15.08838065,0.0001394,53.2167,200.191,80.3457,279.7692,-4.1858e-06,-3.55e-06,0.0,0 STARLINK-3300,1 50841U 22001AQ  24153.45263302 -.00000355  00000-0 -41858-5 0  9999,2 50841  53.2167 200.1910 0001394  80.3457 279.7692 15.08838065132700,6917.886,95.438,540.716,538.787,0.0
50841.0,STARLINK-3300,PAYLOAD,2024-06-01 20:24:06,15.08839962,0.0001432,53.2168,198.4068,79.8809,280.2344,3.3918e-05,2.52e-06,0.0,0 STARLINK-3300,1 50841U 22001AQ  24153.85007126  .00000252  00000-0  33918-4 0  9994,2 50841  53.2168 198.4068 0001432  79.8809 280.2344 15.08839962134060,6917.881,95.438,540.736,538.755,0.0
50841.0,STARLINK-3300,PAYLOAD,2024-06-02 09:07:11,15.08839462,0.000132,53.2158,196.0275,81.4865,278.6276,9.7942e-05,1.271e-05,0.0,0 STARLINK-3300,1 50841U 22001AQ  24154.37999002  .00001271  00000-0  97942-4 0  9994,2 50841  53.2158 196.0275 0001320  81.4865 278.6276 15.08839462132844,6917.882,95.438,540.66,538.834,0.0
50841.0,STARLINK-3300,PAYLOAD,2024-06-02 20:14:53,15.08841422,0.0001304,53.2159,193.9457,81.9361,278.1779,8.2115e-05,1.019e-05,0.0,0 STARLINK-3300,1 50841U 22001AQ  24154.84366924  .00001019  00000-0  82115-4 0  9993,2 50841  53.2159 193.9457 0001304  81.9361 278.1779 15.08841422132911,6917.876,95.437,540.643,538.839,0.0
50841.0,STARLINK-3300,PAYLOAD,2024-06-03 05:47:12,15.08838063,0.0001327,53.2159,192.1615,83.0072,277.1071,9.9058e-05,1.289e-05,0.0,0 STARLINK-3300,1 50841U 22001AQ  24155.24111221  .00001289  00000-0  99058-4 0  9999,2 50841  53.2159 192.1615 0001327  83.0072 277.1071 15.08838063134277,6917.886,95.438,540.669,538.833,0.0
50841.0,STARLINK-3300,PAYLOAD,2024-06-03 08:57:58,15.08841339,0.0001314,53.2158,191.5665,85.0735,275.0407,0.00012825,1.754e-05,0.0,0 STARLINK-3300,1 50841U 22001AQ  24155.37358958  .00001754  00000-0  12825-3 0  9996,2 50841  53.2158 191.5665 0001314  85.0735 275.0407 15.08841339132995,6917.876,95.437,540.65,538.832,0.0
50841.0,STARLINK-3300,PAYLOAD,2024-06-04 08:48:45,15.08843922,0.0001338,53.2161,187.1048,90.416,269.6985,5.7969e-05,6.35e-06,0.0,0 STARLINK-3300,1 50841U 22001AQ  24156.36718877  .00000635  00000-0  57969-4 0  9992,2 50841  53.2161 187.1048 0001338  90.4160 269.6985 15.08843922134445,6917.868,95.437,540.659,538.808,0.0
50841.0,STARLINK-3300,PAYLOAD,2024-06-05 08:39:32,15.08842763,0.0001321,53.2159,182.6446,90.3909,269.7235,4.0926e-05,3.64e-06,0.0,0 STARLINK-3300,1 50841U 22001AQ  24157.36078825  .00000364  00000-0  40926-4 0  9999,2 50841  53.2159 182.6446 0001321  90.3909 269.7235 15.08842763133299,6917.872,95.437,540.651,538.823,0.0
50841.0,STARLINK-3300,PAYLOAD,2024-06-06 05:19:33,15.08833198,0.0001339,53.2158,178.7791,90.6527,269.4619,-1.9521e-05,-5.98e-06,0.0,0 STARLINK-3300,1 50841U 22001AQ  24158.22191773 -.00000598  00000-0 -19521-4 0  9991,2 50841  53.2158 178.7791 0001339  90.6527 269.4619 15.08833198134729,6917.901,95.438,540.692,538.84,0.0
50841.0,STARLINK-3300,PAYLOAD,2024-06-06 08:30:20,15.08832134,0.0001322,53.2157,178.1852,89.9114,270.203,-3.3004e-05,-8.13e-06,0.0,0 STARLINK-3300,1 50841U 22001AQ  24158.35439920 -.00000813  00000-0 -33004-4 0  9996,2 50841  53.2157 178.1852 0001322  89.9114 270.2030 15.08832134133449,6917.904,95.438,540.684,538.855,0.0
50841.0,STARLINK-3300,PAYLOAD,2024-06-07 08:21:06,15.08839129,0.0001318,53.2153,173.7236,84.6687,275.4455,4.5128e-05,4.3e-06,0.0,0 STARLINK-3300,1 50841U 22001AQ  24159.34799541  .00000430  00000-0  45128-4 0  9997,2 50841  53.2153 173.7236 0001318  84.6687 275.4455 15.08839129134893,6917.883,95.438,540.66,538.836,0.0
50841.0,STARLINK-3300,PAYLOAD,2024-06-07 17:53:25,15.08839318,0.0001301,53.2147,171.9387,83.0207,277.0933,8.9152e-05,1.131e-05,0.0,0 STARLINK-3300,1 50841U 22001AQ  24159.74543455  .00001131  00000-0  89152-4 0  9996,2 50841  53.2147 171.9387 0001301  83.0207 277.0933 15.08839318133658,6917.882,95.438,540.647,538.847,0.0
50841.0,STARLINK-3300,PAYLOAD,2024-06-08 08:11:52,15.08851902,0.0001628,53.2157,169.2629,64.4333,295.6827,0.00021766,3.179e-05,0.0,0 STARLINK-3300,1 50841U 22001AQ  24160.34158443  .00003179  00000-0  21766-3 0  9993,2 50841  53.2157 169.2629 0001628  64.4333 295.6827 15.08851902133744,6917.844,95.437,540.835,538.583,0.0
50841.0,STARLINK-3300,PAYLOAD,2024-06-08 17:44:12,15.08844116,0.0001289,53.2149,167.4771,83.0886,277.0253,0.00012536,1.708e-05,0.0,0 STARLINK-3300,1 50841U 22001AQ  24160.73902894  .00001708  00000-0  12536-3 0  9994,2 50841  53.2149 167.4771 0001289  83.0886 277.0253 15.08844116135104,6917.868,95.437,540.625,538.841,0.0
50841.0,STARLINK-3300,PAYLOAD,2024-06-09 04:51:55,15.08833842,0.0001705,53.2159,165.3962,89.4925,270.6262,5.4522e-06,-2.01e-06,0.0,0 STARLINK-3300,1 50841U 22001AQ  24161.20272132 -.00000201  00000-0  54522-5 0  9993,2 50841  53.2159 165.3962 0001705  89.4925 270.6262 15.08833842135171,6917.899,95.438,540.944,538.585,0.0
50841.0,STARLINK-3300,PAYLOAD,2024-06-09 08:02:41,15.08832736,0.0001197,53.216,164.8023,93.4767,266.6362,-2.997e-05,-7.65e-06,0.0,0 STARLINK-3300,1 50841U 22001AQ  24161.33520279 -.00000765  00000-0 -29970-4 0  9999,2 50841  53.2160 164.8023 0001197  93.4767 266.6362 15.08832736133893,6917.903,95.438,540.596,538.94,0.0
50841.0,STARLINK-3300,PAYLOAD,2024-06-09 17:35:00,15.08835308,0.000129,53.2168,163.019,92.1446,267.9693,2.576e-06,-2.47e-06,0.0,0 STARLINK-3300,1 50841U 22001AQ  24161.73264223 -.00000247  00000-0  25760-5 0  9995,2 50841  53.2168 163.0190 0001290  92.1446 267.9693 15.08835308133957,6917.895,95.438,540.652,538.867,0.0
50841.0,STARLINK-3300,PAYLOAD,2024-06-10 06:18:05,15.0884286,0.0001439,53.2165,160.6399,91.5147,268.601,-9.681e-06,-4.42e-06,0.0,0 STARLINK-3300,1 50841U 22001AQ  24162.26255899 -.00000442  00000-0 -96810-5 0  9995,2 50841  53.2165 160.6399 0001439  91.5147 268.6010 15.08842860135330,6917.872,95.437,540.732,538.741,0.0
50841.0,STARLINK-3300,PAYLOAD,2024-06-10 17:25:46,15.08853065,0.0001089,53.2166,158.5585,125.6693,234.4401,-9.265e-05,-1.763e-05,0.0,0 STARLINK-3300,1 50841U 22001AQ  24162.72623060 -.00001763  00000-0 -92650-4 0  9999,2 50841  53.2166 158.5585 0001089 125.6693 234.4401 15.08853065135402,6917.84,95.437,540.459,538.952,0.0
50841.0,STARLINK-3300,PAYLOAD,2024-06-11 06:08:52,15.08844218,0.0001186,53.2157,156.1794,98.692,261.4206,0.00034189,5.158e-05,0.0,0 STARLINK-3300,1 50841U 22001AQ  24163.25615919  .00005158  00000-0  34189-3 0  9994,2 50841  53.2157 156.1794 0001186  98.6920 261.4206 15.08844218135489,6917.867,95.437,540.553,538.912,0.0
50841.0,STARLINK-3300,PAYLOAD,2024-06-11 09:19:38,15.08847139,0.0001202,53.2157,155.5847,98.5439,261.569,0.00035247,5.327e-05,0.0,0 STARLINK-3300,1 50841U 22001AQ  24163.38863795  .00005327  00000-0  35247-3 0  9999,2 50841  53.2157 155.5847 0001202  98.5439 261.5690 15.08847139134206,6917.859,95.437,540.555,538.892,0.0
50841.0,STARLINK-3300,PAYLOAD,2024-06-12 05:59:39,15.08835618,0.000114,53.2152,151.7205,91.6225,268.4898,5.8322e-05,6.4e-06,0.0,0 STARLINK-3300,1 50841U 22001AQ  24164.24976513  .00000640  00000-0  58322-4 0  9991,2 50841  53.2152 151.7205 0001140  91.6225 268.4898 15.08835618135638,6917.894,95.438,540.547,538.97,0.0
50841.0,STARLINK-3300,PAYLOAD,2024-06-13 09:01:12,15.08846029,0.0001142,53.2157,146.6644,90.9574,269.1549,4.8249e-05,4.8e-06,0.0,0 STARLINK-3300,1 50841U 22001AQ  24165.37583873  .00000480  00000-0  48249-4 0  9998,2 50841  53.2157 146.6644 0001142  90.9574 269.1549 15.08846029135802,6917.862,95.437,540.517,538.937,0.0
50841.0,STARLINK-3300,PAYLOAD,2024-06-13 15:22:45,15.08838984,0.0001138,53.2163,145.4745,91.1635,268.9488,8.575e-05,1.077e-05,0.0,0 STARLINK-3300,1 50841U 22001AQ  24165.64080226  .00001077  00000-0  85750-4 0  9993,2 50841  53.2163 145.4745 0001138  91.1635 268.9488 15.08838984134544,6917.883,95.438,540.536,538.961,0.0
50841.0,STARLINK-3300,PAYLOAD,2024-06-14 05:41:13,15.08836325,0.0001206,53.2169,142.7988,88.5924,271.5206,8.3177e-05,1.036e-05,0.0,0 STARLINK-3300,1 50841U 22001AQ  24166.23696566  .00001036  00000-0  83177-4 0  9995,2 50841  53.2169 142.7988 0001206  88.5924 271.5206 15.08836325134631,6917.892,95.438,540.591,538.922,0.0
50841.0,STARLINK-3300,PAYLOAD,2024-06-14 15:13:32,15.08838351,0.000122,53.2171,141.0148,88.3196,271.7936,8.2233e-05,1.021e-05,0.0,0 STARLINK-3300,1 50841U 22001AQ  24166.63440522  .00001021  00000-0  82233-4 0  9994,2 50841  53.2171 141.0148 0001220  88.3196 271.7936 15.08838351134698,6917.885,95.438,540.594,538.906,0.0
50841.0,STARLINK-3300,PAYLOAD,2024-06-15 05:32:00,15.08845058,0.0001233,53.2171,138.3384,87.2896,272.8238,7.0358e-05,8.32e-06,0.0,0 STARLINK-3300,1 50841U 22001AQ  24167.23056109  .00000832  00000-0  70358-4 0  9999,2 50841  53.2171 138.3384 0001233  87.2896 272.8238 15.08845058134787,6917.865,95.437,540.583,538.877,0.0
50841.0,STARLINK-3300,PAYLOAD,2024-06-15 21:25:52,15.08838898,0.000126,53.2171,135.3656,87.8723,272.2414,6.1952e-05,6.98e-06,0.0,0 STARLINK-3300,1 50841U 22001AQ  24167.89296483  .00000698  00000-0  61952-4 0  9992,2 50841  53.2171 135.3656 0001260  87.8723 272.2414 15.08838898134886,6917.884,95.438,540.62,538.877,0.0
50841.0,STARLINK-3300,PAYLOAD,2024-06-16 05:22:47,15.08841447,0.0001331,53.2169,133.879,87.3356,272.7789,7.4776e-05,9.02e-06,0.0,0 STARLINK-3300,1 50841U 22001AQ  24168.22416345  .00000902  00000-0  74776-4 0  9997,2 50841  53.2169 133.8790 0001331  87.3356 272.7789 15.08841447134931,6917.876,95.437,540.662,538.82,0.0
50841.0,STARLINK-3300,PAYLOAD,2024-06-16 14:55:06,15.08838413,0.000142,53.2168,132.0928,79.0945,281.0207,-3.1816e-06,-3.39e-06,0.0,0 STARLINK-3300,1 50841U 22001AQ  24168.62160803 -.00000339  00000-0 -31816-5 0  9991,2 50841  53.2168 132.0928 0001420  79.0945 281.0207 15.08838413134998,6917.885,95.438,540.733,538.768,0.0
